{
  "type": "FeatureCollection",
  "features": [
    {
      "type": "Feature",
      "properties": {
        "norad_id": 37846,
        "name": "GSAT0101 (GALILEO-PFM)",
        "group": "gnss",
        "lat": -52.16619353099266,
        "lon": -136.4596747047977,
        "alt_km": 23223.65944484036,
        "timestamp": "2025-12-09T04:51:47.737306+00:00",
        "meta_object_name": "GSAT0101 (GALILEO-PFM)",
        "meta_object_id": "2011-060A",
        "meta_epoch": "2025-12-06T10:45:46.943136",
        "meta_mean_motion": 1.70475516,
        "meta_eccentricity": 0.00028809,
        "meta_inclination": 57.0541,
        "meta_ra_of_asc_node": 346.9907,
        "meta_arg_of_pericenter": 311.6243,
        "meta_mean_anomaly": 48.3737,
        "meta_ephemeris_type": 0,
        "meta_classification_type": "U",
        "meta_norad_cat_id": 37846,
        "meta_element_set_no": 999,
        "meta_rev_at_epoch": 8783,
        "meta_bstar": 0,
        "meta_mean_motion_dot": -8.1e-07,
        "meta_mean_motion_ddot": 0,
        "tle_line1": "1 37846U 11060A   25340.44845999 -.00000081  00000+0  00000+0 0  9990",
        "tle_line2": "2 37846  57.0541 346.9907 0002880 311.6243  48.3737  1.70475516 87832"
      },
      "geometry": {
        "type": "Point",
        "coordinates": [
          -136.4596747047977,
          -52.16619353099266
        ]
      }
    },
    {
      "type": "Feature",
      "properties": {
        "norad_id": 37847,
        "name": "GSAT0102 (GALILEO-FM2)",
        "group": "gnss",
        "lat": -49.08966357641984,
        "lon": -61.539343880902095,
        "alt_km": 23213.464169590414,
        "timestamp": "2025-12-09T04:51:47.737319+00:00",
        "meta_object_name": "GSAT0102 (GALILEO-FM2)",
        "meta_object_id": "2011-060B",
        "meta_epoch": "2025-12-06T01:52:21.849024",
        "meta_mean_motion": 1.7047572,
        "meta_eccentricity": 0.00048425,
        "meta_inclination": 57.055,
        "meta_ra_of_asc_node": 347.0012,
        "meta_arg_of_pericenter": 307.2223,
        "meta_mean_anomaly": 230.8964,
        "meta_ephemeris_type": 0,
        "meta_classification_type": "U",
        "meta_norad_cat_id": 37847,
        "meta_element_set_no": 999,
        "meta_rev_at_epoch": 8783,
        "meta_bstar": 0,
        "meta_mean_motion_dot": -7.9e-07,
        "meta_mean_motion_ddot": 0,
        "tle_line1": "1 37847U 11060B   25340.07803066 -.00000079  00000+0  00000+0 0  9996",
        "tle_line2": "2 37847  57.0550 347.0012 0004842 307.2223 230.8964  1.70475720 87838"
      },
      "geometry": {
        "type": "Point",
        "coordinates": [
          -61.539343880902095,
          -49.08966357641984
        ]
      }
    },
    {
      "type": "Feature",
      "properties": {
        "norad_id": 37867,
        "name": "COSMOS 2476 (744)",
        "group": "gnss",
        "lat": -30.644045796479496,
        "lon": -84.80057692448607,
        "alt_km": 19076.183326408747,
        "timestamp": "2025-12-09T04:51:47.737331+00:00",
        "meta_object_name": "COSMOS 2476 (744)",
        "meta_object_id": "2011-064A",
        "meta_epoch": "2025-12-08T12:40:16.683168",
        "meta_mean_motion": 2.131013,
        "meta_eccentricity": 0.00241182,
        "meta_inclination": 65.16,
        "meta_ra_of_asc_node": 79.314,
        "meta_arg_of_pericenter": 233.9995,
        "meta_mean_anomaly": 182.6426,
        "meta_ephemeris_type": 0,
        "meta_classification_type": "U",
        "meta_norad_cat_id": 37867,
        "meta_element_set_no": 999,
        "meta_rev_at_epoch": 10970,
        "meta_bstar": 0,
        "meta_mean_motion_dot": -1.2e-07,
        "meta_mean_motion_ddot": 0,
        "tle_line1": "1 37867U 11064A   25342.52797087 -.00000012  00000+0  00000+0 0  9996",
        "tle_line2": "2 37867  65.1600  79.3140 0024118 233.9995 182.6426  2.13101300109708"
      },
      "geometry": {
        "type": "Point",
        "coordinates": [
          -84.80057692448607,
          -30.644045796479496
        ]
      }
    },
    {
      "type": "Feature",
      "properties": {
        "norad_id": 37868,
        "name": "COSMOS 2477 (745)",
        "group": "gnss",
        "lat": 31.550999321156233,
        "lon": 95.86770769119767,
        "alt_km": 19177.245599608457,
        "timestamp": "2025-12-09T04:51:47.737343+00:00",
        "meta_object_name": "COSMOS 2477 (745)",
        "meta_object_id": "2011-064B",
        "meta_epoch": "2025-12-08T06:12:22.664160",
        "meta_mean_motion": 2.13102704,
        "meta_eccentricity": 0.0021182,
        "meta_inclination": 65.1663,
        "meta_ra_of_asc_node": 79.4007,
        "meta_arg_of_pericenter": 234.576,
        "meta_mean_anomaly": 156.3219,
        "meta_ephemeris_type": 0,
        "meta_classification_type": "U",
        "meta_norad_cat_id": 37868,
        "meta_element_set_no": 999,
        "meta_rev_at_epoch": 10969,
        "meta_bstar": 0,
        "meta_mean_motion_dot": -1.1e-07,
        "meta_mean_motion_ddot": 0,
        "tle_line1": "1 37868U 11064B   25342.25859565 -.00000011  00000+0  00000+0 0  9996",
        "tle_line2": "2 37868  65.1663  79.4007 0021182 234.5760 156.3219  2.13102704109691"
      },
      "geometry": {
        "type": "Point",
        "coordinates": [
          95.86770769119767,
          31.550999321156233
        ]
      }
    },
    {
      "type": "Feature",
      "properties": {
        "norad_id": 37869,
        "name": "COSMOS 2475 (743)",
        "group": "gnss",
        "lat": -7.8246290006252375,
        "lon": 75.75344841783398,
        "alt_km": 19146.262629873287,
        "timestamp": "2025-12-09T04:51:47.737355+00:00",
        "meta_object_name": "COSMOS 2475 (743)",
        "meta_object_id": "2011-064C",
        "meta_epoch": "2025-12-08T07:57:01.791072",
        "meta_mean_motion": 2.13101382,
        "meta_eccentricity": 0.00262509,
        "meta_inclination": 65.1734,
        "meta_ra_of_asc_node": 79.4181,
        "meta_arg_of_pericenter": 248.5935,
        "meta_mean_anomaly": 154.0263,
        "meta_ephemeris_type": 0,
        "meta_classification_type": "U",
        "meta_norad_cat_id": 37869,
        "meta_element_set_no": 999,
        "meta_rev_at_epoch": 10970,
        "meta_bstar": 0,
        "meta_mean_motion_dot": -1.1e-07,
        "meta_mean_motion_ddot": 0,
        "tle_line1": "1 37869U 11064C   25342.33127073 -.00000011  00000+0  00000+0 0  9998",
        "tle_line2": "2 37869  65.1734  79.4181 0026250 248.5935 154.0263  2.13101382109701"
      },
      "geometry": {
        "type": "Point",
        "coordinates": [
          75.75344841783398,
          -7.8246290006252375
        ]
      }
    },
    {
      "type": "Feature",
      "properties": {
        "norad_id": 37948,
        "name": "BEIDOU-2 IGSO-5 (C10)",
        "group": "gnss",
        "lat": -21.003921925924896,
        "lon": -106.29744187398768,
        "alt_km": 35931.46773135606,
        "timestamp": "2025-12-09T04:51:47.737366+00:00",
        "meta_object_name": "BEIDOU-2 IGSO-5 (C10)",
        "meta_object_id": "2011-073A",
        "meta_epoch": "2025-12-07T19:12:14.882400",
        "meta_mean_motion": 1.00291658,
        "meta_eccentricity": 0.01104068,
        "meta_inclination": 48.0298,
        "meta_ra_of_asc_node": 273.9181,
        "meta_arg_of_pericenter": 222.1784,
        "meta_mean_anomaly": 321.4594,
        "meta_ephemeris_type": 0,
        "meta_classification_type": "U",
        "meta_norad_cat_id": 37948,
        "meta_element_set_no": 999,
        "meta_rev_at_epoch": 5121,
        "meta_bstar": 0,
        "meta_mean_motion_dot": -1.91e-06,
        "meta_mean_motion_ddot": 0,
        "tle_line1": "1 37948U 11073A   25341.80017225 -.00000191  00000+0  00000+0 0  9993",
        "tle_line2": "2 37948  48.0298 273.9181 0110406 222.1784 321.4594  1.00291658 51212"
      },
      "geometry": {
        "type": "Point",
        "coordinates": [
          -106.29744187398768,
          -21.003921925924896
        ]
      }
    },
    {
      "type": "Feature",
      "properties": {
        "norad_id": 37951,
        "name": "LUCH 5A (SDCM/PRN 140)",
        "group": "gnss",
        "lat": -7.284625980525133,
        "lon": -42.00776690876965,
        "alt_km": 35775.37335240197,
        "timestamp": "2025-12-09T04:51:47.737378+00:00",
        "meta_object_name": "LUCH 5A (SDCM/PRN 140)",
        "meta_object_id": "2011-074B",
        "meta_epoch": "2025-12-08T14:23:47.688864",
        "meta_mean_motion": 1.00274097,
        "meta_eccentricity": 0.0005787,
        "meta_inclination": 8.2694,
        "meta_ra_of_asc_node": 76.6453,
        "meta_arg_of_pericenter": 178.2122,
        "meta_mean_anomaly": 205.7197,
        "meta_ephemeris_type": 0,
        "meta_classification_type": "U",
        "meta_norad_cat_id": 37951,
        "meta_element_set_no": 999,
        "meta_rev_at_epoch": 5114,
        "meta_bstar": 0,
        "meta_mean_motion_dot": -4.9e-07,
        "meta_mean_motion_ddot": 0,
        "tle_line1": "1 37951U 11074B   25342.59985751 -.00000049  00000+0  00000+0 0  9995",
        "tle_line2": "2 37951   8.2694  76.6453 0005787 178.2122 205.7197  1.00274097 51149"
      },
      "geometry": {
        "type": "Point",
        "coordinates": [
          -42.00776690876965,
          -7.284625980525133
        ]
      }
    }
  ]
}